CTC1_L_00085001-01
1 61800U 23616UF  26037.47802083  .00000000  00000+0  00000-0 0  9992
2 61800  60.0000   0.0000 0000000   0.0000   0.0000 14.79785919    14
CTC1_L_00085001-02
1 61801U 22013DZ  26037.47802083  .00000000  00000+0  00000-0 0  9993
2 61801  60.0000   0.0000 0000000   0.0000  90.0000 14.79785919    14
CTC1_L_00085001-03
1 61802U 22431ZV  26037.47802083  .00000000  00000+0  00000-0 0  9998
2 61802  60.0000   0.0000 0000000   0.0000 180.0000 14.79785919    15
CTC1_L_00085001-04
1 61803U 24561W   26037.47802083  .00000000  00000+0  00000-0 0  9995
2 61803  60.0000   0.0000 0000000   0.0000 270.0000 14.79785919    16
CTC1_L_00085002-01
1 61804U 26644ZG  26037.47802083  .00000000  00000+0  00000-0 0  9990
2 61804  60.0000  12.0000 0000000   0.0000  12.0000 14.79785919    14
CTC1_L_00085002-02
1 61805U 22549RG  26037.47802083  .00000000  00000+0  00000-0 0  9991
2 61805  60.0000  12.0000 0000000   0.0000 102.0000 14.79785919    15
CTC1_L_00085002-03
1 61806U 22976AB  26037.47802083  .00000000  00000+0  00000-0 0  9996
2 61806  60.0000  12.0000 0000000   0.0000 192.0000 14.79785919    15
CTC1_L_00085002-04
1 61807U 25625UQ  26037.47802083  .00000000  00000+0  00000-0 0  9991
2 61807  60.0000  12.0000 0000000   0.0000 282.0000 14.79785919    16
CTC1_L_00085003-01
1 61808U 26574PF  26037.47802083  .00000000  00000+0  00000-0 0  9996
2 61808  60.0000  24.0000 0000000   0.0000  24.0000 14.79785919    14
CTC1_L_00085003-02
1 61809U 26409CT  26037.47802083  .00000000  00000+0  00000-0 0  9994
2 61809  60.0000  24.0000 0000000   0.0000 114.0000 14.79785919    15
CTC1_L_00085003-03
1 61810U 23125LA  26037.47802083  .00000000  00000+0  00000-0 0  9998
2 61810  60.0000  24.0000 0000000   0.0000 204.0000 14.79785919    17
CTC1_L_00085003-04
1 61811U 22348YS  26037.47802083  .00000000  00000+0  00000-0 0  9995
2 61811  60.0000  24.0000 0000000   0.0000 294.0000 14.79785919    17
CTC1_L_00085004-01
1 61812U 24168HM  26037.47802083  .00000000  00000+0  00000-0 0  9998
2 61812  60.0000  36.0000 0000000   0.0000  36.0000 14.79785919    15
CTC1_L_00085004-02
1 61813U 26836RY  26037.47802083  .00000000  00000+0  00000-0 0  9993
2 61813  60.0000  36.0000 0000000   0.0000 126.0000 14.79785919    16
CTC1_L_00085004-03
1 61814U 25535JS  26037.47802083  .00000000  00000+0  00000-0 0  9999
2 61814  60.0000  36.0000 0000000   0.0000 216.0000 14.79785919    17
CTC1_L_00085004-04
1 61815U 26575IX  26037.47802083  .00000000  00000+0  00000-0 0  9995
2 61815  60.0000  36.0000 0000000   0.0000 306.0000 14.79785919    18
CTC1_L_00085005-01
1 61816U 23916ZE  26037.47802083  .00000000  00000+0  00000-0 0  9992
2 61816  60.0000  48.0000 0000000   0.0000  48.0000 14.79785919    15
CTC1_L_00085005-02
1 61817U 22104KF  26037.47802083  .00000000  00000+0  00000-0 0  9991
2 61817  60.0000  48.0000 0000000   0.0000 138.0000 14.79785919    16
CTC1_L_00085005-03
1 61818U 23517HZ  26037.47802083  .00000000  00000+0  00000-0 0  9991
2 61818  60.0000  48.0000 0000000   0.0000 228.0000 14.79785919    17
CTC1_L_00085005-04
1 61819U 24886UF  26037.47802083  .00000000  00000+0  00000-0 0  9992
2 61819  60.0000  48.0000 0000000   0.0000 318.0000 14.79785919    18
CTC1_L_00085006-01
1 61820U 25169HL  26037.47802083  .00000000  00000+0  00000-0 0  9999
2 61820  60.0000  60.0000 0000000   0.0000  60.0000 14.79785919    18
CTC1_L_00085006-02
1 61821U 22101TU  26037.47802083  .00000000  00000+0  00000-0 0  9993
2 61821  60.0000  60.0000 0000000   0.0000 150.0000 14.79785919    19
CTC1_L_00085006-03
1 61822U 22348AU  26037.47802083  .00000000  00000+0  00000-0 0  9997
2 61822  60.0000  60.0000 0000000   0.0000 240.0000 14.79785919    10
CTC1_L_00085006-04
1 61823U 26350WJ  26037.47802083  .00000000  00000+0  00000-0 0  9995
2 61823  60.0000  60.0000 0000000   0.0000 330.0000 14.79785919    11
CTC1_L_00085007-01
1 61824U 26272MT  26037.47802083  .00000000  00000+0  00000-0 0  9999
2 61824  60.0000  72.0000 0000000   0.0000  72.0000 14.79785919    18
CTC1_L_00085007-02
1 61825U 25955ZD  26037.47802083  .00000000  00000+0  00000-0 0  9997
2 61825  60.0000  72.0000 0000000   0.0000 162.0000 14.79785919    19
CTC1_L_00085007-03
1 61826U 23923YW  26037.47802083  .00000000  00000+0  00000-0 0  9991
2 61826  60.0000  72.0000 0000000   0.0000 252.0000 14.79785919    10
CTC1_L_00085007-04
1 61827U 23718NN  26037.47802083  .00000000  00000+0  00000-0 0  9994
2 61827  60.0000  72.0000 0000000   0.0000 342.0000 14.79785919    11
CTC1_L_00085008-01
1 61828U 22653GZ  26037.47802083  .00000000  00000+0  00000-0 0  9992
2 61828  60.0000  84.0000 0000000   0.0000  84.0000 14.79785919    18
CTC1_L_00085008-02
1 61829U 26115FS  26037.47802083  .00000000  00000+0  00000-0 0  9990
2 61829  60.0000  84.0000 0000000   0.0000 174.0000 14.79785919    19
CTC1_L_00085008-03
1 61830U 26908O   26037.47802083  .00000000  00000+0  00000-0 0  9992
2 61830  60.0000  84.0000 0000000   0.0000 264.0000 14.79785919    11
CTC1_L_00085008-04
1 61831U 24377RV  26037.47802083  .00000000  00000+0  00000-0 0  9991
2 61831  60.0000  84.0000 0000000   0.0000 354.0000 14.79785919    12
CTC1_L_00085009-01
1 61832U 25931VA  26037.47802083  .00000000  00000+0  00000-0 0  9999
2 61832  60.0000  96.0000 0000000   0.0000  96.0000 14.79785919    19
CTC1_L_00085009-02
1 61833U 25185KV  26037.47802083  .00000000  00000+0  00000-0 0  9991
2 61833  60.0000  96.0000 0000000   0.0000 186.0000 14.79785919    10
CTC1_L_00085009-03
1 61834U 23272ON  26037.47802083  .00000000  00000+0  00000-0 0  9997
2 61834  60.0000  96.0000 0000000   0.0000 276.0000 14.79785919    11
CTC1_L_00085009-04
1 61835U 22644FP  26037.47802083  .00000000  00000+0  00000-0 0  9990
2 61835  60.0000  96.0000 0000000   0.0000   6.0000 14.79785919    13
CTC1_L_00085010-01
1 61836U 23186TT  26037.47802083  .00000000  00000+0  00000-0 0  9993
2 61836  60.0000 108.0000 0000000   0.0000 108.0000 14.79785919    11
CTC1_L_00085010-02
1 61837U 23473ZD  26037.47802083  .00000000  00000+0  00000-0 0  9993
2 61837  60.0000 108.0000 0000000   0.0000 198.0000 14.79785919    11
CTC1_L_00085010-03
1 61838U 22933AV  26037.47802083  .00000000  00000+0  00000-0 0  9994
2 61838  60.0000 108.0000 0000000   0.0000 288.0000 14.79785919    12
CTC1_L_00085010-04
1 61839U 26690XW  26037.47802083  .00000000  00000+0  00000-0 0  9999
2 61839  60.0000 108.0000 0000000   0.0000  18.0000 14.79785919    14
CTC1_L_00085011-01
1 61840U 24172WB  26037.47802083  .00000000  00000+0  00000-0 0  9994
2 61840  60.0000 120.0000 0000000   0.0000 120.0000 14.79785919    14
CTC1_L_00085011-02
1 61841U 25482PF  26037.47802083  .00000000  00000+0  00000-0 0  9990
2 61841  60.0000 120.0000 0000000   0.0000 210.0000 14.79785919    15
CTC1_L_00085011-03
1 61842U 23562TM  26037.47802083  .00000000  00000+0  00000-0 0  9998
2 61842  60.0000 120.0000 0000000   0.0000 300.0000 14.79785919    16
CTC1_L_00085011-04
1 61843U 26450Z   26037.47802083  .00000000  00000+0  00000-0 0  9998
2 61843  60.0000 120.0000 0000000   0.0000  30.0000 14.79785919    17
CTC1_L_00085012-01
1 61844U 23643XV  26037.47802083  .00000000  00000+0  00000-0 0  9990
2 61844  60.0000 132.0000 0000000   0.0000 132.0000 14.79785919    14
CTC1_L_00085012-02
1 61845U 22845NL  26037.47802083  .00000000  00000+0  00000-0 0  9994
2 61845  60.0000 132.0000 0000000   0.0000 222.0000 14.79785919    15
CTC1_L_00085012-03
1 61846U 26481RC  26037.47802083  .00000000  00000+0  00000-0 0  9995
2 61846  60.0000 132.0000 0000000   0.0000 312.0000 14.79785919    16
CTC1_L_00085012-04
1 61847U 23725XE  26037.47802083  .00000000  00000+0  00000-0 0  9994
2 61847  60.0000 132.0000 0000000   0.0000  42.0000 14.79785919    17
CTC1_L_00085013-01
1 61848U 22717NG  26037.47802083  .00000000  00000+0  00000-0 0  9995
2 61848  60.0000 144.0000 0000000   0.0000 144.0000 14.79785919    14
CTC1_L_00085013-02
1 61849U 22272DQ  26037.47802083  .00000000  00000+0  00000-0 0  9992
2 61849  60.0000 144.0000 0000000   0.0000 234.0000 14.79785919    15
CTC1_L_00085013-03
1 61850U 25945EG  26037.47802083  .00000000  00000+0  00000-0 0  9994
2 61850  60.0000 144.0000 0000000   0.0000 324.0000 14.79785919    17
CTC1_L_00085013-04
1 61851U 25591WF  26037.47802083  .00000000  00000+0  00000-0 0  9992
2 61851  60.0000 144.0000 0000000   0.0000  54.0000 14.79785919    18
CTC1_L_00085014-01
1 61852U 23865SL  26037.47802083  .00000000  00000+0  00000-0 0  9995
2 61852  60.0000 156.0000 0000000   0.0000 156.0000 14.79785919    15
CTC1_L_00085014-02
1 61853U 24497TG  26037.47802083  .00000000  00000+0  00000-0 0  9998
2 61853  60.0000 156.0000 0000000   0.0000 246.0000 14.79785919    16
CTC1_L_00085014-03
1 61854U 24804VB  26037.47802083  .00000000  00000+0  00000-0 0  9991
2 61854  60.0000 156.0000 0000000   0.0000 336.0000 14.79785919    17
CTC1_L_00085014-04
1 61855U 24919OK  26037.47802083  .00000000  00000+0  00000-0 0  9999
2 61855  60.0000 156.0000 0000000   0.0000  66.0000 14.79785919    18
CTC1_L_00085015-01
1 61856U 23952ZE  26037.47802083  .00000000  00000+0  00000-0 0  9996
2 61856  60.0000 168.0000 0000000   0.0000 168.0000 14.79785919    15
CTC1_L_00085015-02
1 61857U 23940AY  26037.47802083  .00000000  00000+0  00000-0 0  9994
2 61857  60.0000 168.0000 0000000   0.0000 258.0000 14.79785919    16
CTC1_L_00085015-03
1 61858U 24399QC  26037.47802083  .00000000  00000+0  00000-0 0  9994
2 61858  60.0000 168.0000 0000000   0.0000 348.0000 14.79785919    17
CTC1_L_00085015-04
1 61859U 22379AF  26037.47802083  .00000000  00000+0  00000-0 0  9991
2 61859  60.0000 168.0000 0000000   0.0000  78.0000 14.79785919    18
CTC1_L_00085016-01
1 61860U 23051YL  26037.47802083  .00000000  00000+0  00000-0 0  9991
2 61860  60.0000 180.0000 0000000   0.0000 180.0000 14.79785919    18
CTC1_L_00085016-02
1 61861U 25810PD  26037.47802083  .00000000  00000+0  00000-0 0  9997
2 61861  60.0000 180.0000 0000000   0.0000 270.0000 14.79785919    19
